{
  "type": "FeatureCollection",
  "features": [
    {
      "type": "Feature",
      "properties": {
        "norad_id": 66604,
        "name": "STARLINK-35977",
        "group": "last-30-days",
        "lat": 23.662044168503236,
        "lon": -98.31717292070105,
        "alt_km": 350.8964757547219,
        "timestamp": "2025-12-05T19:30:24.351498+00:00",
        "meta_object_name": "STARLINK-35977",
        "meta_object_id": "2025-270S",
        "meta_epoch": "2025-12-05T06:00:02.000160",
        "meta_mean_motion": 15.74056683,
        "meta_eccentricity": 0.00014601,
        "meta_inclination": 42.9988,
        "meta_ra_of_asc_node": 237.0361,
        "meta_arg_of_pericenter": 275.7813,
        "meta_mean_anomaly": 169.9051,
        "meta_ephemeris_type": 0,
        "meta_classification_type": "U",
        "meta_norad_cat_id": 66604,
        "meta_element_set_no": 999,
        "meta_rev_at_epoch": 319,
        "meta_bstar": -0.014784676,
        "meta_mean_motion_dot": -0.01892644,
        "meta_mean_motion_ddot": 0,
        "tle_line1": "1 66604U 25270S   25339.25002315 -.01892644  00000+0 -14785-1 0  9999",
        "tle_line2": "2 66604  42.9988 237.0361 0001460 275.7813 169.9051 15.74056683  3199"
      },
      "geometry": {
        "type": "Point",
        "coordinates": [
          -98.31717292070105,
          23.662044168503236
        ]
      }
    },
    {
      "type": "Feature",
      "properties": {
        "norad_id": 66605,
        "name": "STARLINK-36052",
        "group": "last-30-days",
        "lat": 24.808367016079984,
        "lon": -96.63101679769176,
        "alt_km": 350.5866590076066,
        "timestamp": "2025-12-05T19:30:24.351508+00:00",
        "meta_object_name": "STARLINK-36052",
        "meta_object_id": "2025-270T",
        "meta_epoch": "2025-12-05T06:00:02.000160",
        "meta_mean_motion": 15.74056486,
        "meta_eccentricity": 0.00015227,
        "meta_inclination": 42.9989,
        "meta_ra_of_asc_node": 237.0323,
        "meta_arg_of_pericenter": 282.5743,
        "meta_mean_anomaly": 165.0283,
        "meta_ephemeris_type": 0,
        "meta_classification_type": "U",
        "meta_norad_cat_id": 66605,
        "meta_element_set_no": 999,
        "meta_rev_at_epoch": 319,
        "meta_bstar": -0.014776557,
        "meta_mean_motion_dot": -0.01891786,
        "meta_mean_motion_ddot": 0,
        "tle_line1": "1 66605U 25270T   25339.25002315 -.01891786  00000+0 -14777-1 0  9997",
        "tle_line2": "2 66605  42.9989 237.0323 0001522 282.5743 165.0283 15.74056486  3191"
      },
      "geometry": {
        "type": "Point",
        "coordinates": [
          -96.63101679769176,
          24.808367016079984
        ]
      }
    },
    {
      "type": "Feature",
      "properties": {
        "norad_id": 66606,
        "name": "STARLINK-36063",
        "group": "last-30-days",
        "lat": 27.039576635319435,
        "lon": -93.16913885497857,
        "alt_km": 350.46454876936605,
        "timestamp": "2025-12-05T19:30:24.351518+00:00",
        "meta_object_name": "STARLINK-36063",
        "meta_object_id": "2025-270U",
        "meta_epoch": "2025-12-05T06:00:02.000160",
        "meta_mean_motion": 15.74048689,
        "meta_eccentricity": 0.00016545,
        "meta_inclination": 42.9988,
        "meta_ra_of_asc_node": 237.0217,
        "meta_arg_of_pericenter": 277.9913,
        "meta_mean_anomaly": 173.4501,
        "meta_ephemeris_type": 0,
        "meta_classification_type": "U",
        "meta_norad_cat_id": 66606,
        "meta_element_set_no": 999,
        "meta_rev_at_epoch": 319,
        "meta_bstar": -0.014710163,
        "meta_mean_motion_dot": -0.01883986,
        "meta_mean_motion_ddot": 0,
        "tle_line1": "1 66606U 25270U   25339.25002315 -.01883986  00000+0 -14710-1 0  9998",
        "tle_line2": "2 66606  42.9988 237.0217 0001654 277.9913 173.4501 15.74048689  3198"
      },
      "geometry": {
        "type": "Point",
        "coordinates": [
          -93.16913885497857,
          27.039576635319435
        ]
      }
    },
    {
      "type": "Feature",
      "properties": {
        "norad_id": 66607,
        "name": "STARLINK-35993",
        "group": "last-30-days",
        "lat": 25.930453258252818,
        "lon": -94.92198555898105,
        "alt_km": 350.4930457152086,
        "timestamp": "2025-12-05T19:30:24.351529+00:00",
        "meta_object_name": "STARLINK-35993",
        "meta_object_id": "2025-270V",
        "meta_epoch": "2025-12-05T06:00:02.000160",
        "meta_mean_motion": 15.74048388,
        "meta_eccentricity": 0.00010901,
        "meta_inclination": 42.9989,
        "meta_ra_of_asc_node": 237.0276,
        "meta_arg_of_pericenter": 274.3138,
        "meta_mean_anomaly": 175.2102,
        "meta_ephemeris_type": 0,
        "meta_classification_type": "U",
        "meta_norad_cat_id": 66607,
        "meta_element_set_no": 999,
        "meta_rev_at_epoch": 309,
        "meta_bstar": -0.014706267,
        "meta_mean_motion_dot": -0.01883036,
        "meta_mean_motion_ddot": 0,
        "tle_line1": "1 66607U 25270V   25339.25002315 -.01883036  00000+0 -14706-1 0  9990",
        "tle_line2": "2 66607  42.9989 237.0276 0001090 274.3138 175.2102 15.74048388  3091"
      },
      "geometry": {
        "type": "Point",
        "coordinates": [
          -94.92198555898105,
          25.930453258252818
        ]
      }
    },
    {
      "type": "Feature",
      "properties": {
        "norad_id": 66608,
        "name": "STARLINK-36036",
        "group": "last-30-days",
        "lat": 28.121074869479532,
        "lon": -91.38929762173527,
        "alt_km": 350.4303162561155,
        "timestamp": "2025-12-05T19:30:24.351541+00:00",
        "meta_object_name": "STARLINK-36036",
        "meta_object_id": "2025-270W",
        "meta_epoch": "2025-12-05T06:00:02.000160",
        "meta_mean_motion": 15.74053208,
        "meta_eccentricity": 0.00015635,
        "meta_inclination": 42.9989,
        "meta_ra_of_asc_node": 237.0173,
        "meta_arg_of_pericenter": 272.7622,
        "meta_mean_anomaly": 180.5933,
        "meta_ephemeris_type": 0,
        "meta_classification_type": "U",
        "meta_norad_cat_id": 66608,
        "meta_element_set_no": 999,
        "meta_rev_at_epoch": 303,
        "meta_bstar": -0.014748677,
        "meta_mean_motion_dot": -0.01888498,
        "meta_mean_motion_ddot": 0,
        "tle_line1": "1 66608U 25270W   25339.25002315 -.01888498  00000+0 -14749-1 0  9995",
        "tle_line2": "2 66608  42.9989 237.0173 0001563 272.7622 180.5933 15.74053208  3035"
      },
      "geometry": {
        "type": "Point",
        "coordinates": [
          -91.38929762173527,
          28.121074869479532
        ]
      }
    },
    {
      "type": "Feature",
      "properties": {
        "norad_id": 66609,
        "name": "STARLINK-36034",
        "group": "last-30-days",
        "lat": 29.18373896590917,
        "lon": -89.56455886440291,
        "alt_km": 350.0246685388747,
        "timestamp": "2025-12-05T19:30:24.351553+00:00",
        "meta_object_name": "STARLINK-36034",
        "meta_object_id": "2025-270X",
        "meta_epoch": "2025-12-05T06:00:02.000160",
        "meta_mean_motion": 15.74023879,
        "meta_eccentricity": 0.00013931,
        "meta_inclination": 42.9988,
        "meta_ra_of_asc_node": 237.0132,
        "meta_arg_of_pericenter": 279.6485,
        "meta_mean_anomaly": 175.6462,
        "meta_ephemeris_type": 0,
        "meta_classification_type": "U",
        "meta_norad_cat_id": 66609,
        "meta_element_set_no": 999,
        "meta_rev_at_epoch": 303,
        "meta_bstar": -0.014491964,
        "meta_mean_motion_dot": -0.01857741,
        "meta_mean_motion_ddot": 0,
        "tle_line1": "1 66609U 25270X   25339.25002315 -.01857741  00000+0 -14492-1 0  9998",
        "tle_line2": "2 66609  42.9988 237.0132 0001393 279.6485 175.6462 15.74023879  3037"
      },
      "geometry": {
        "type": "Point",
        "coordinates": [
          -89.56455886440291,
          29.18373896590917
        ]
      }
    },
    {
      "type": "Feature",
      "properties": {
        "norad_id": 66610,
        "name": "STARLINK-35680",
        "group": "last-30-days",
        "lat": 30.213647583169653,
        "lon": -87.7163610500808,
        "alt_km": 350.0071107544036,
        "timestamp": "2025-12-05T19:30:24.351563+00:00",
        "meta_object_name": "STARLINK-35680",
        "meta_object_id": "2025-270Y",
        "meta_epoch": "2025-12-05T06:00:02.000160",
        "meta_mean_motion": 15.74048601,
        "meta_eccentricity": 0.00012321,
        "meta_inclination": 42.9987,
        "meta_ra_of_asc_node": 237.0084,
        "meta_arg_of_pericenter": 272.3525,
        "meta_mean_anomaly": 184.8397,
        "meta_ephemeris_type": 0,
        "meta_classification_type": "U",
        "meta_norad_cat_id": 66610,
        "meta_element_set_no": 999,
        "meta_rev_at_epoch": 330,
        "meta_bstar": -0.014699907,
        "meta_mean_motion_dot": -0.01882468,
        "meta_mean_motion_ddot": 0,
        "tle_line1": "1 66610U 25270Y   25339.25002315 -.01882468  00000+0 -14700-1 0  9996",
        "tle_line2": "2 66610  42.9987 237.0084 0001232 272.3525 184.8397 15.74048601  3300"
      },
      "geometry": {
        "type": "Point",
        "coordinates": [
          -87.7163610500808,
          30.213647583169653
        ]
      }
    }
  ]
}